X,Y,OBJECTID,NAME,LADDR,LADDR2,LCITY,LSTATE,LZIP,LZIP4,LEVEL_,LAT,LON
-73.392274746082649,41.999126303935839,1,SALISBURY SCHOOL,251 CANAAN RD,,SALISBURY,CT,06068,1602,Secondary,41.99912630,-73.39227475
-73.440887000334783,41.942729000043357,2,THE HOTCHKISS SCHOOL,PO BOX 800,,LAKEVILLE,CT,06039,0800,Secondary,41.94272900,-73.44088700
-73.467760483259667,41.936412935408669,3,INDIAN MOUNTAIN SCHOOL,211 INDIAN MOUNTAIN RD,,LAKEVILLE,CT,06039,,Combined elementary and secondary,41.93641294,-73.46776048
-73.449076548843607,41.390813703289837,4,ST PETER-SACRED HEART SCHOOL,17 COTTAGE ST,,DANBURY,CT,06810,6706,Elementary,41.39081370,-73.44907655
-73.385864122231396,41.466404289726256,5,ST JOSEPH ELEMENTARY SCHOOL,5 OBTUSE HILL RD,,BROOKFIELD,CT,06804,3039,Elementary,41.46640429,-73.38586412
-73.534168838720916,41.091982130970621,6,TRINITY CATHOLIC MIDDLE,948 NEWFIELD AVE,,STAMFORD,CT,06905,2519,Elementary,41.09198213,-73.53416884
-73.498725473202001,41.36457277291521,7,WOOSTER SCHOOL,91 MIRY BROOK RD,,DANBURY,CT,06810,,Combined elementary and secondary,41.36457277,-73.49872547
-73.467722891598157,41.407614781996642,8,IMMANUEL LUTHERAN SCHOOL,18 CLAPBOARD RIDGE RD,,DANBURY,CT,06811,4551,Elementary,41.40761478,-73.46772289
-73.452071995426195,41.13338929308145,9,PARKWAY CHRISTIAN ACADEMY HAPPY TIME NURSERY,260 NEW CANAAN AVE,,NORWALK,CT,06850,1412,Elementary,41.13338929,-73.45207200
-73.54828705720189,41.092196247858624,10,GRACE CHRISTIAN SCHOOL,602 HIGH RIDGE RD,,STAMFORD,CT,06905,2635,Elementary,41.09219625,-73.54828706
-73.365747249435969,41.136919023294354,11,LANDMARK OF RIDGEFIELD ACADEMY,11 BURR RD,,WESTPORT,CT,06880,4220,Elementary,41.13691902,-73.36574725
-73.428463922072297,41.260415150638721,12,LANDMARK OF RIDGEFIELD ACADEMY,20 PORTLAND AVE,,REDDING,CT,06896,3111,Elementary,41.26041515,-73.42846392
-73.461578530025122,41.164994697447355,13,CONNECTICUT FRIENDS SCHOOL,317 NEW CANAAN RD,,WILTON,CT,06897,3322,Elementary,41.16499470,-73.46157853
-73.602719239001658,41.072682416360465,14,THE STANWICH SCHOOL,257 STANWICH RD,,GREENWICH,CT,06830,3501,Elementary,41.07268242,-73.60271924
-73.373458861337326,41.134679455092851,15,PIERREPONT SCHOOL,1 SYLVAN RD N,,WESTPORT,CT,06880,,Combined elementary and secondary,41.13467946,-73.37345886
-73.505177398418141,41.281925795439179,16,ST MARY SCHOOL,183 HIGH RIDGE AVE,,RIDGEFIELD,CT,06877,4496,Elementary,41.28192580,-73.50517740
-73.405867987117858,41.438861026815005,17,COUNTRY KIDS CLUB,94 OLD STATE RD,,BROOKFIELD,CT,06804,,Elementary,41.43886103,-73.40586799
-73.378541145157669,41.44050941757564,18,MONTESSORI COMMUNITY SCHOOL AT BROOKFIELD,PO BOX 5255,,BROOKFIELD,CT,06804,5255,Elementary,41.44050942,-73.37854115
-73.426134678872302,41.22922030926992,19,TOWN & COUNTRY MONTESSORI SCHOOL,PO BOX 127,,GEORGETOWN,CT,06829,0127,Elementary,41.22922031,-73.42613468
-73.51692887286913,41.073751197659703,20,OUR LADY OF GRACE NURSERY SCHOOL & KINDERGARTEN,635 GLENBROOK RD,,STAMFORD,CT,06906,1409,Elementary,41.07375120,-73.51692887
-73.459071942316257,41.400088087795041,21,ST JOSEPH ELEMENTARY SCHOOL,370 MAIN ST,,DANBURY,CT,06810,,Elementary,41.40008809,-73.45907194
-73.438983482701531,41.4284723184428,22,ST GREGORY THE GREAT SCHOOL,85 GREAT PLAIN RD,,DANBURY,CT,06811,3998,Elementary,41.42847232,-73.43898348
-73.387768248705697,41.373873193692987,23,ST MARY ELEMENTARY SCHOOL,24 DODGINGTOWN RD,,BETHEL,CT,06801,2299,Elementary,41.37387319,-73.38776825
-73.532740114564604,41.100475016309019,24,ST CECILIA ELEMENTARY SCHOOL,1186 NEWFIELD AVE,,STAMFORD,CT,06905,1497,Elementary,41.10047502,-73.53274011
-73.626079373764071,41.069221632672281,25,GREENWICH CATHOLIC SCHOOL,471 NORTH ST,,GREENWICH,CT,06830,3949,Elementary,41.06922163,-73.62607937
-73.598646014302062,41.126210826268675,26,THE MEAD SCHOOL,1095 RIVERBANK RD,,STAMFORD,CT,06903,,Elementary,41.12621083,-73.59864601
-73.34633684536908,41.127038154886975,27,THE LEARNING COMMUNITY DAY SCHOOL,90 HILLSPOINT RD,,WESTPORT,CT,06880,5111,Elementary,41.12703815,-73.34633685
-73.552901105401645,41.142901691260079,28,VILLA MARIA EDUCATION CENTER,161 SKYMEADOW DR,,STAMFORD,CT,06903,,Elementary,41.14290169,-73.55290111
-73.494604330825155,41.369761539163733,29,MAIMONIDES ACADEMY,103 MIRY BROOK RD,,DANBURY,CT,06810,7417,Elementary,41.36976154,-73.49460433
-73.653859242010356,41.114190474310988,30,WHITBY SCHOOL,969 LAKE AVE,,GREENWICH,CT,06831,3095,Elementary,41.11419047,-73.65385924
-73.536983794066828,41.295459177599014,31,RIDGEFIELD ACADEMY,223 W MOUNTAIN RD,,RIDGEFIELD,CT,06877,3627,Elementary,41.29545918,-73.53698379
-73.381064122111525,41.412687634626707,32,KINDERCARE LEARNING CENTER,174 OLD HAWLEYVILLE RD,,BETHEL,CT,06801,3044,Elementary,41.41268763,-73.38106412
-73.431276558965976,41.433631433144171,33,COLONIAL HILLS CHRISTIAN ACADEMY,40 STADLEY ROUGH RD,,DANBURY,CT,06811,3200,Combined elementary and secondary,41.43363143,-73.43127656
-73.410992974346243,41.167905201264091,34,THE MONTESSORI SCHOOL,34 WHIPPLE RD,,WILTON,CT,06897,,Elementary,41.16790520,-73.41099297
-73.35530869344143,41.379200730729167,35,HOUSATONIC VALLEY WALDORF SCHOOL,40 DODGINGTOWN RD,,NEWTOWN,CT,06470,1861,Elementary,41.37920073,-73.35530869
-73.430045001275744,41.389962420329482,36,HUDSON COUNTY MONTESSORI SCHOOL,44A SHELTER ROCK RD,,DANBURY,CT,06810,,Elementary,41.38996242,-73.43004500
-73.5493471582447,41.123949632969243,37,THE CHILDREN'S SCHOOL,118 SCOFIELDTOWN RD,,STAMFORD,CT,06903,4020,Elementary,41.12394963,-73.54934716
-73.402087924318209,41.454246378367714,38,CHRISTIAN LIFE ACADEMY,133 JUNCTION RD,,BROOKFIELD,CT,06804,,Elementary,41.45424638,-73.40208792
-73.598236102414148,41.15707907613853,39,THE CANAAN RIDGE SCHOOL,2810 LONG RIDGE RD,,STAMFORD,CT,06903,1122,Elementary,41.15707908,-73.59823610
-73.49397699973872,41.14515957055778,40,ST ALOYSIUS DIOCESAN ELEMENTARY SCHOOL,33 SOUTH AVE,,NEW CANAAN,CT,06840,5414,Elementary,41.14515957,-73.49397700
-73.453177570688297,41.382387122267914,41,IMMACULATE HIGH SCHOOL,73 SOUTHERN BLVD,,DANBURY,CT,06810,7994,Secondary,41.38238712,-73.45317757
-73.425965692662544,41.187562139181409,42,OUR LADY OF FATIMA SCHOOL,225 DANBURY RD,,WILTON,CT,06897,,Elementary,41.18756214,-73.42596569
-73.534264028362202,41.09183588321946,43,TRINITY CATHOLIC HIGH SCHOOL,926 NEWFIELD AVE,,STAMFORD,CT,06905,,Secondary,41.09183588,-73.53426403
-73.556686422040684,41.130473952710815,44,HOLY SPIRIT SCHOOL,403 SCOFIELDTOWN RD,,STAMFORD,CT,06903,,Elementary,41.13047395,-73.55668642
-73.417165031441016,41.137445165362124,45,ALL SAINTS CATHOLIC SCHOOL,139 W ROCKS RD,,NORWALK,CT,06851,2298,Elementary,41.13744517,-73.41716503
-73.549031524085535,41.144112936862598,46,BI-CULTURAL DAY SCHOOL,2186 HIGH RIDGE RD,,STAMFORD,CT,06903,3497,Elementary,41.14411294,-73.54903152
-73.522891785427532,41.13242292837549,47,NEW CANAAN COUNTRY SCHOOL,PO BOX 997,,NEW CANAAN,CT,06840,0997,Combined elementary and secondary,41.13242293,-73.52289179
-73.600782709954046,41.139872628019418,48,THE LONG RIDGE SCHOOL,478 ERSKINE RD,,STAMFORD,CT,06903,1599,Elementary,41.13987263,-73.60078271
-73.482701970819278,41.726031679218693,49,KENT SCHOOL,PO BOX 2006,,KENT,CT,06757,0640,Secondary,41.72603168,-73.48270197
-73.479840499839156,41.676173660685947,50,SOUTH KENT SCHOOL,40 BULLS BRIDGE RD,,SOUTH KENT,CT,06785,1199,Secondary,41.67617366,-73.47984050
-73.415089999603765,41.587636009594235,51,CANTERBURY SCHOOL,101 ASPETUCK AVE,,NEW MILFORD,CT,06776,2825,Secondary,41.58763601,-73.41509000
-73.457666135583679,41.783678538933486,52,THE MARVELWOOD SCHOOL,PO BOX 3001,,KENT,CT,06757,,Secondary,41.78367854,-73.45766614
-73.493609115867969,41.377969366393188,53,NEW ENGLAND COUNTRY DAY SCHOOL,27 KENOSIA AVE,,DANBURY,CT,06810,7364,Elementary,41.37796937,-73.49360912
-73.427538268776061,41.217029955767885,54,APPLE BLOSSOM SCHOOL & FAMILY CENTER,440 DANBURY RD,,WILTON,CT,06897,,Elementary,41.21702996,-73.42753827
-73.499265367702492,41.421236393045149,55,KINDERCARE LEARNING CENTER 755,123 S KING ST,,DANBURY,CT,06811,3535,Elementary,41.42123639,-73.49926537
-73.421323695332262,41.546138997117055,56,KINDERCARE LEARNING CENTER,204 DANBURY RD,,NEW MILFORD,CT,06776,,Elementary,41.54613900,-73.42132370
-73.482680982441366,41.465699503629253,57,NEW FAIRFIELD BRIGHT BEGINNING,74 STATE ROUTE 37,,NEW FAIRFIELD,CT,06812,5034,Elementary,41.46569950,-73.48268098
-73.483941230303515,41.061186388940769,58,ST LUKES PARISH SCHOOL,1864 POST RD,,DARIEN,CT,06820,,Elementary,41.06118639,-73.48394123
-73.419696489001751,41.50325912590796,59,FAITH ACADEMY,600 DANBURY RD STE 2,,NEW MILFORD,CT,06776,4397,Combined elementary and secondary,41.50325913,-73.41969649
-73.533917531269026,41.110304953410946,60,KING & LOW-HEYWOOD THOMAS SCHOOL,1450 NEWFIELD AVE,,STAMFORD,CT,06905,1501,Combined elementary and secondary,41.11030495,-73.53391753
-73.627721316385589,41.042097068924647,61,GREENWICH ACADEMY,200 N MAPLE AVE,,GREENWICH,CT,06830,,Combined elementary and secondary,41.04209707,-73.62772132
-73.635282640781213,41.03868956377238,62,WESTCHESTER FAIRFIELD HEBREW ACADEMY,270 LAKE AVE,,GREENWICH,CT,06830,,Elementary,41.03868956,-73.63528264
-73.524818867996316,41.03653867322123,63,OUR LADY STAR OF THE SEA,1170 SHIPPAN AVE,,STAMFORD,CT,06902,7425,Elementary,41.03653867,-73.52481887
-73.552988486229594,41.035054101165883,64,WATERSIDE SCHOOL,535 FAIRFIELD AVE,,STAMFORD,CT,06902,7509,Elementary,41.03505410,-73.55298849
-73.640253682961088,41.03246508789357,65,EAGLE HILL SCHOOL,45 GLENVILLE RD,,GREENWICH,CT,06831,5392,Combined elementary and secondary,41.03246509,-73.64025368
-73.624098385831815,41.047304434052421,66,THE GREENWICH JAPANESE SCHOOL,15 RIDGEWAY,,GREENWICH,CT,06831,,Combined elementary and secondary,41.04730443,-73.62409839
-73.47958952063982,41.050017442251203,67,PEAR TREE POINT SCHOOL,90 PEAR TREE POINT RD,,DARIEN,CT,06820,5818,Elementary,41.05001744,-73.47958952
-73.626277959360323,41.037905969185204,68,BRUNSWICK SCHOOL,100 MAHER AVE,,GREENWICH,CT,06830,,Combined elementary and secondary,41.03790597,-73.62627796
-73.615791322011887,41.049979624859873,69,GREENWICH COUNTRY DAY SCHOOL,PO BOX 623,,GREENWICH,CT,06836,0623,Combined elementary and secondary,41.04997962,-73.61579132
-73.214709388027813,41.176192660762752,70,ST PETER SCHOOL,659 BEECHWOOD AVE,,BRIDGEPORT,CT,06605,1606,Elementary,41.17619266,-73.21470939
-73.165581584822235,41.193177893644929,71,ST AMBROSE SCHOOL,461 MILL HILL AVE,,BRIDGEPORT,CT,06610,,Elementary,41.19317789,-73.16558158
-73.223134327786966,41.238178159394579,72,ST THERESA SCHOOL,55 ROSEMOND TER,,TRUMBULL,CT,06611,3697,Elementary,41.23817816,-73.22313433
-73.209218026890369,41.330124649333129,73,ST JUDE SCHOOL,707 MONROE TPKE,,MONROE,CT,06468,2361,Elementary,41.33012465,-73.20921803
-73.332279697150284,41.144549371556309,74,SETON ACADEMY,47 LONG LOTS RD,,WESTPORT,CT,06880,,Secondary,41.14454937,-73.33227970
-73.285871854802224,41.148761036092992,75,GIANT STEPS CONNECTICUT,309 BARBERRY RD,,SOUTHPORT,CT,06890,3034,Combined elementary and secondary,41.14876104,-73.28587185
-73.295045176193867,41.251380804180826,76,EASTON COUNTRY DAY SCHOOL,660 MOREHOUSE RD,,EASTON,CT,06612,,Combined elementary and secondary,41.25138080,-73.29504518
-73.18830693491708,41.167274502216571,77,BRIDGEPORT HOPE SCHOOL,283 LAFAYETTE ST,,BRIDGEPORT,CT,06604,,Elementary,41.16727450,-73.18830693
-73.201536910999607,41.218170957124016,78,FAIRFIELD COUNTY SDA SCHOOL,827 TRUMBULL AVE,,BRIDGEPORT,CT,06606,,Elementary,41.21817096,-73.20153691
-73.253509686223026,41.200190646880912,79,ST CATHERINE ACADEMY,760 TAHMORE DR,,FAIRFIELD,CT,06825,,Combined elementary and secondary,41.20019065,-73.25350969
-73.188437584826659,41.167416349584926,80,BRIDGEPORT INTERNATIONAL ACADEMY,285 LAFAYETTE ST,,BRIDGEPORT,CT,06604,5755,Secondary,41.16741635,-73.18843758
-73.129133128890771,41.193862323587439,81,THE PHOENIX SCHOOL,55 SUTTON AVE,,STRATFORD,CT,06615,5916,Secondary,41.19386232,-73.12913313
-73.08763237163663,41.291989996940856,82,A CHILD'S GARDEN INC,20 IVY BROOK RD,,SHELTON,CT,06484,6402,Elementary,41.29199000,-73.08763237
-73.218488090153187,41.315980331627031,83,KINDERCARE LEARNING CENTER INC,304 ELM ST,,MONROE,CT,06468,2298,Elementary,41.31598033,-73.21848809
-73.234583245120632,41.302054587849,84,MAGIC KINGDOM DAY NURSERY & KINDERGARTEN,101 CUTLERS FARM RD,,MONROE,CT,06468,2142,Elementary,41.30205459,-73.23458325
-73.29782898711801,41.414327379305178,85,ST ROSE OF LIMA SCHOOL,40 CHURCH HILL RD,,NEWTOWN,CT,06470,,Elementary,41.41432738,-73.29782899
-73.196704645003308,41.180403375615356,86,ST AUGUSTINE CATHEDRAL SCHOOL,63 PEQUONNOCK ST,,BRIDGEPORT,CT,06604,,Elementary,41.18040338,-73.19670464
-73.225676830821044,41.156130280588059,87,ST ANN SCHOOL,521 BREWSTER ST,,BRIDGEPORT,CT,06605,,Elementary,41.15613028,-73.22567683
-73.22314735266815,41.217985820888998,88,ST ANDREW SCHOOL,395 ANTON ST,,BRIDGEPORT,CT,06606,,Elementary,41.21798582,-73.22314735
-73.164739110721371,41.261829530608395,89,ST JOSEPH HIGH SCHOOL,2320 HUNTINGTON TPKE,,TRUMBULL,CT,06611,5099,Secondary,41.26182953,-73.16473911
-73.129736377032145,41.228732881217525,90,ST MARK SCHOOL,500 WIGWAM LN,,STRATFORD,CT,06614,2498,Elementary,41.22873288,-73.12973638
-73.14706650801287,41.29806220320819,91,ST LAWRENCE ELEMENTARY SCHOOL,503 SHELTON AVE,,SHELTON,CT,06484,,Elementary,41.29806220,-73.14706651
-73.25420660595006,41.160741793598959,92,FAIRFIELD COLLEGE PREPARATORY,1073 N BENSON RD,,FAIRFIELD,CT,06824,5157,Secondary,41.16074179,-73.25420661
-73.24083739592902,41.200834431064209,93,HILLEL ACADEMY,1571 STRATFIELD RD,,FAIRFIELD,CT,06825,1397,Elementary,41.20083443,-73.24083740
-73.166551911941156,41.181733906394697,94,LOVE CHRISTIAN ACADEMY,1065 CENTRAL AVE,,BRIDGEPORT,CT,06607,1054,Elementary,41.18173391,-73.16655191
-73.163948369221828,41.188828085148089,95,COPE SCHOOL,425 GRANT ST,,BRIDGEPORT,CT,06610,3222,Secondary,41.18882809,-73.16394837
-73.284040514058461,41.133697291097178,96,EAGLE HILL - SOUTHPORT,214 MAIN ST,,SOUTHPORT,CT,06890,1325,Combined elementary and secondary,41.13369729,-73.28404051
-73.267095708400177,41.177733492606649,97,HUNT RIDGE MONTESSORI SCHOOL,834 BROOKSIDE DR,,FAIRFIELD,CT,06824,2420,Elementary,41.17773349,-73.26709571
-73.144981828248717,41.239958365586176,98,ST VINCENT'S SPECIAL NEEDS SERVICES,95 MERRITT BLVD,,TRUMBULL,CT,06611,5435,Combined elementary and secondary,41.23995837,-73.14498183
-73.251018697255063,41.143638896118205,99,GREAT BEGINNINGS MONTESSORI SCHOOL,148 BEACH RD,,FAIRFIELD,CT,06824,6002,Elementary,41.14363890,-73.25101870
-73.280946784166701,41.380994067921961,100,THE FRASER-WOODS SCHOOL,173 S MAIN ST,,NEWTOWN,CT,06470,2792,Elementary,41.38099407,-73.28094678
-73.284108806775976,41.419113662965231,101,WESLEY LEARNING CENTER,92 CHURCH HILL RD,,SANDY HOOK,CT,06482,1110,Elementary,41.41911366,-73.28410881
-73.170438592067342,41.227568968732953,102,MONTESSORI CENTER FOR EARLY LEARNING,65 BEARDSLEY PKWY,,TRUMBULL,CT,06611,5201,Elementary,41.22756897,-73.17043859
-73.097026000849212,41.318285168126067,103,ST JOSEPH SCHOOL,430 CORAM AVE,,SHELTON,CT,06484,,Elementary,41.31828517,-73.09702600
-72.771342222665396,41.634532378966185,104,ST PAUL SCHOOL,461 ALLING ST,,KENSINGTON,CT,06037,2170,Elementary,41.63453238,-72.77134222
-73.262155429329539,41.140030845746992,105,ST THOMAS AQUINAS ELEMENTARY SCHOOL,1719 POST RD,,FAIRFIELD,CT,06824,5715,Elementary,41.14003085,-73.26215543
-72.747699574875469,41.800899567760894,106,ST TIMOTHY MIDDLE SCHOOL,225 KING PHILIP DR,,WEST HARTFORD,CT,06117,1497,Elementary,41.80089957,-72.74769957
-73.227089691835772,41.1923486467727,107,OUR LADY OF THE ASSUMPTION SCHOOL,605 STRATFIELD RD,,FAIRFIELD,CT,06825,1844,Elementary,41.19234865,-73.22708969
-72.685282872006894,41.740394445847073,108,ST AUGUSTINE SCHOOL,20 CLIFFORD ST,,HARTFORD,CT,06114,,Elementary,41.74039445,-72.68528287
-72.787382027958188,41.683716299867399,109,POPE JOHN PAUL II,221 FARMINGTON AVE,,NEW BRITAIN,CT,06053,2979,Elementary,41.68371630,-72.78738203
-73.246406950420408,41.224061980575982,110,NOTRE DAME CATHOLIC HIGH SCHOOL,220 JEFFERSON ST,,FAIRFIELD,CT,06825,,Secondary,41.22406198,-73.24640695
-72.601941899399094,41.747630820006407,111,ST CHRISTOPHER SCHOOL,570 BREWER ST,,EAST HARTFORD,CT,06118,2398,Elementary,41.74763082,-72.60194190
-73.234959661758921,41.174496258795386,112,HOLY FAMILY SCHOOL,140 EDISON AVE,,FAIRFIELD,CT,06825,4298,Elementary,41.17449626,-73.23495966
-72.938679674727155,41.67754625995201,113,ST JOSEPH SCHOOL,335 CENTER ST,,BRISTOL,CT,06010,5193,Elementary,41.67754626,-72.93867967
-72.946294519576384,41.670333960643802,114,ST ANTHONY SCHOOL,30 PLEASANT ST,,BRISTOL,CT,06010,6253,Elementary,41.67033396,-72.94629452
-73.200166499784075,41.186291764053749,115,ST RAPHAEL ELEMENTARY SCHOOL,324 FRANK ST,,BRIDGEPORT,CT,06604,,Elementary,41.18629176,-73.20016650
-73.155512606121817,41.245479218191406,116,ST CATHERINE OF SIENA SCHOOL,190 SHELTON RD,,TRUMBULL,CT,06611,,Elementary,41.24547922,-73.15551261
-73.12953144222223,41.189481623378242,117,ST JAMES SCHOOL,2110 MAIN ST STE 1,,STRATFORD,CT,06615,6330,Elementary,41.18948162,-73.12953144
-73.196305199425353,41.179519103723692,118,KOLBE CATHEDRAL HIGH SCHOOL,33 CALHOUN PL,,BRIDGEPORT,CT,06604,3498,Secondary,41.17951910,-73.19630520
-72.743235476935695,41.826735582880872,119,THE BESS & PAUL SIGEL HEBREW ACADEMY,53 GABB RD,,BLOOMFIELD,CT,06002,,Elementary,41.82673558,-72.74323548
-72.949345933667871,41.673713174023817,120,IMMANUEL LUTHERAN SCHOOL,154 MEADOW ST,,BRISTOL,CT,06010,5776,Elementary,41.67371317,-72.94934593
-72.682088918968418,41.751177157100187,121,THE GRACE S WEBB SCHOOL,200 RETREAT AVE,,HARTFORD,CT,06106,,Combined elementary and secondary,41.75117716,-72.68208892
-73.233103076145994,41.195463919924009,122,THE UNQUOWA SCHOOL,981 STRATFIELD RD,,FAIRFIELD,CT,06825,1697,Elementary,41.19546392,-73.23310308
-72.794179830634619,41.642378692222906,123,MOORELAND HILL SCHOOL,166 LINCOLN ST,,KENSINGTON,CT,06037,,Elementary,41.64237869,-72.79417983
-73.314615333131087,41.119052124755797,124,GREENS FARMS ACADEMY,PO BOX 998,,GREENS FARMS,CT,06838,,Combined elementary and secondary,41.11905212,-73.31461533
-72.833608513921718,41.851104374767147,125,THE COBB SCHOOL MONTESSORI,112 SAND HILL RD,,SIMSBURY,CT,06070,,Elementary,41.85110437,-72.83360851
-72.742715158877445,41.676551536923967,126,EMMANUEL CHRISTIAN ACADEMY,569 MAPLE HILL AVE,,NEWINGTON,CT,06111,,Combined elementary and secondary,41.67655154,-72.74271516
-72.797893617896136,41.811543826586387,127,TALCOTT MOUNTAIN ACADEMY OF SCIENCE MATHEMATICS,324 MONTEVIDEO RD,,AVON,CT,06001,3946,Elementary,41.81154383,-72.79789362
-73.290541622298008,41.172903885905669,128,FAIRFIELD COUNTRY DAY SCHOOL,2970 BRONSON RD,,FAIRFIELD,CT,06824,,Combined elementary and secondary,41.17290389,-73.29054162
-72.521940266929732,41.763866924818785,129,SUMMIT SCHOOL/NEW HOPE MANOR,48 HARTFORD RD,,MANCHESTER,CT,06040,5921,Combined elementary and secondary,41.76386692,-72.52194027
-72.747287797793604,41.771052089782188,130,AMERICAN SCHOOL FOR THE DEAF,139 N MAIN ST,,WEST HARTFORD,CT,06107,1269,Combined elementary and secondary,41.77105209,-72.74728780
-72.695231412599583,41.797233672096354,131,OAK HILL SCHOOL,120 HOLCOMB ST,,HARTFORD,CT,06112,1529,Combined elementary and secondary,41.79723367,-72.69523141
-73.183880440330029,41.237474608966068,132,CHRISTIAN HERITAGE SCHOOL,575 WHITE PLAINS RD,,TRUMBULL,CT,06611,4898,Combined elementary and secondary,41.23747461,-73.18388044
-72.834074733262298,41.849462356602544,133,ETHEL WALKER SCHOOL,230 BUSHY HILL RD,,SIMSBURY,CT,06070,,Combined elementary and secondary,41.84946236,-72.83407473
-72.639264470279045,41.842211088770796,134,THE LOOMIS CHAFFEE SCHOOL,4 BATCHELDER RD,,WINDSOR,CT,06095,3032,Secondary,41.84221109,-72.63926447
-72.753278015567901,41.799504649120308,135,NORTHWEST CATHOLIC HIGH SCHOOL,29 WAMPANOAG DR,,WEST HARTFORD,CT,06117,,Secondary,41.79950465,-72.75327802
-72.652018041299527,41.986020071868893,136,SUFFIELD ACADEMY,185 N MAIN ST,,SUFFIELD,CT,06078,2154,Secondary,41.98602007,-72.65201804
-72.797580429892889,41.88971079801496,137,WESTMINSTER SCHOOL,995 HOPMEADOW ST,,SIMSBURY,CT,06070,,Secondary,41.88971080,-72.79758043
-72.648010915871055,41.852196291126006,138,ST GABRIEL SCHOOL,77 BLOOMFIELD AVE,,WINDSOR,CT,06095,2892,Elementary,41.85219629,-72.64801092
-72.524512227257446,41.77058568068469,139,ST JAMES SCHOOL,73 PARK ST,,MANCHESTER,CT,06040,5996,Elementary,41.77058568,-72.52451223
-72.564345262823565,42.020073643983551,140,ST MARTHA SCHOOL,214 BRAINARD RD,,ENFIELD,CT,06082,,Elementary,42.02007364,-72.56434526
-72.59314469966813,41.971946251118652,141,ENFIELD MONTESSORI SCHOOL,1370 ENFIELD ST,,ENFIELD,CT,06082,5526,Elementary,41.97194625,-72.59314470
-72.846866574033129,41.633492453314147,142,ST DOMINIC SCHOOL,1050 FLANDERS RD,,SOUTHINGTON,CT,06489,,Elementary,41.63349245,-72.84686657
-72.788631161099147,41.651394555814136,143,RAYMOND HILL SCHOOL,370 LINWOOD ST,,NEW BRITAIN,CT,06052,,Combined elementary and secondary,41.65139456,-72.78863116
-72.592878912231981,41.710022000315121,144,KINDERCARE LEARNING CENTER,30 NUTMEG LN,,GLASTONBURY,CT,06033,2314,Elementary,41.71002200,-72.59287891
-72.747250814973086,41.770952979996082,145,MONTESSORI SCHOOL GREATER HARTFORD,141 N MAIN ST,,WEST HARTFORD,CT,06107,1239,Elementary,41.77095298,-72.74725082
-72.663811508694153,41.93304957707636,146,NEW ENGLAND PRESCHOOL ACADEMY,1 FOXWOOD DR,,WINDSOR LOCKS,CT,06096,1653,Elementary,41.93304958,-72.66381151
-72.765897780058481,41.75121609414748,147,SOLOMON SCHECHTER DAY SCHOOL,26 BUENA VISTA RD,,WEST HARTFORD,CT,06107,,Elementary,41.75121609,-72.76589778
-72.524824224558301,41.782143031975409,148,CLINICAL DAY SCHOOL - MANCHESTER MEMORIAL HOSPITAL,71 HAYNES ST,,MANCHESTER,CT,06040,,Secondary,41.78214303,-72.52482422
-72.671407769053246,41.811719026212131,149,MADINA ACADEMY,PO BOX 564,,WINDSOR,CT,06095,0564,Elementary,41.81171903,-72.67140777
-72.833602805924727,41.817398675708375,150,FARMINGTON VALLEY ACADEMY MONTESSORI,150 FISHER DR,,AVON,CT,06001,4704,Elementary,41.81739868,-72.83360281
-72.442139310081075,41.776459956062183,151,HOLY SEED CHRISTIAN ACADEMY,PO BOX 968,,MANCHESTER,CT,06045,0968,Elementary,41.77645996,-72.44213931
-72.747097926627987,41.622209040015264,152,MOUNTAIN LAUREL SUDBURY SCHOOL,1528 FARMINGTON AVE,,BERLIN,CT,06037,,Combined elementary and secondary,41.62220904,-72.74709793
-72.599429125253891,41.986578352109291,153,ST BERNARD SCHOOL,232 PEARL ST,,ENFIELD,CT,06082,4379,Elementary,41.98657835,-72.59942913
-72.747343959556076,41.771199203580409,154,BEN BRONZ ACADEMY,139 N MAIN ST BOATNER BLDG,,WEST HARTFORD,CT,06107,,Combined elementary and secondary,41.77119920,-72.74734396
-72.637397001070724,41.867912404334049,155,PRAISE POWER & PRAYER CHRISTIAN SCHOOL,PO BOX 474,,WINDSOR,CT,06095,0474,Combined elementary and secondary,41.86791240,-72.63739700
-72.655439327662805,41.768188232001364,156,NEW TESTAMENT BAPTIST CHURCH SCHOOL,111 ASH ST,,EAST HARTFORD,CT,06108,3226,Combined elementary and secondary,41.76818823,-72.65543933
-72.527446787938857,41.795551422760013,157,COMMUNITY CHILD GUIDANCE CLINIC,317 N MAIN ST,,MANCHESTER,CT,06042,,Elementary,41.79555142,-72.52744679
-72.683940576296493,41.771045184787511,158,GRAY LODGE SCHOOL,105 SPRING ST,,HARTFORD,CT,06105,,Secondary,41.77104518,-72.68394058
-72.940509951572949,41.686800978082715,159,HERITAGE CHRISTIAN SCHOOL,48 LEWIS ST,,BRISTOL,CT,06010,,Combined elementary and secondary,41.68680098,-72.94050995
-72.725970621447004,41.816888823060765,160,WEBB SCHOOL AT BLOOMFIELD,2 NORTHWESTERN DR,,BLOOMFIELD,CT,06002,,Secondary,41.81688882,-72.72597062
-72.691262228668904,41.719798716437651,161,CCMC SCHOOL,170 RIDGE RD,,WETHERSFIELD,CT,06109,,Combined elementary and secondary,41.71979872,-72.69126223
-72.750180477047365,41.803337529103715,162,HEBREW HIGH SCHOOL OF NEW ENGLAND,1244 N MAIN ST,,WEST HARTFORD,CT,06117,1212,Secondary,41.80333753,-72.75018048
-72.694889171098339,41.783963954972592,163,HARTFORD AREA SD A SCHOOL,474 WOODLAND ST,,HARTFORD,CT,06112,1839,Combined elementary and secondary,41.78396395,-72.69488917
-72.961145385151383,41.769140821791552,164,THE BURLINGTON ACADEMY OF LEARNING,PO BOX 1380,,BURLINGTON,CT,06013,,Elementary,41.76914082,-72.96114539
-72.746388864254641,41.790224690617038,165,INTENSIVE EDUCATION ACADEMY IN,840 N MAIN ST,,WEST HARTFORD,CT,06117,2026,Combined elementary and secondary,41.79022469,-72.74638886
-72.937015749077545,41.703670791973536,166,LIBERTY BAPTIST CHILD CARE,265 MAPLE AVE,,BRISTOL,CT,06010,2628,Elementary,41.70367079,-72.93701575
-72.547227440194149,41.680696471764804,167,OUR CHILDRENS PLACE,30 QUARRY RD,,GLASTONBURY,CT,06033,3827,Elementary,41.68069647,-72.54722744
-72.863419122394532,41.883862039101871,168,THE MASTER'S SCHOOL,36 WESTLEDGE RD,,WEST SIMSBURY,CT,06092,,Combined elementary and secondary,41.88386204,-72.86341912
-72.662470623120726,41.839195010841138,169,TRINITY CHRISTIAN SCHOOL,180 PARK AVE,,WINDSOR,CT,06095,,Elementary,41.83919501,-72.66247062
-72.635207071848868,41.8578119277783,170,WINDSOR MONTESSORI SCHOOL,114 PALISADO AVE,,WINDSOR,CT,06095,2531,Elementary,41.85781193,-72.63520707
-72.52628813738761,41.807545599050229,171,THE CHILDREN'S PLACE INC,452 TOLLAND TPKE,,MANCHESTER,CT,06042,,Elementary,41.80754560,-72.52628814
-72.735560757922599,41.758134468930677,172,KINGSWOOD-OXFORD SCHOOL,170 KINGSWOOD RD,,WEST HARTFORD,CT,06119,,Combined elementary and secondary,41.75813447,-72.73556076
-73.114885894568317,41.600027510860969,173,ST JOHN THE EVANGELIST SCHOOL,760 MAIN ST,,WATERTOWN,CT,06795,2690,Elementary,41.60002751,-73.11488589
-72.653098362699268,41.566411827643776,174,ST JOHN SCHOOL,5 SAINT JOHNS SQ,,MIDDLETOWN,CT,06457,2229,Elementary,41.56641183,-72.65309836
-72.664430700916057,41.708995619352379,175,CORPUS CHRISTI SCHOOL,581 SILAS DEANE HWY,,WETHERSFIELD,CT,06109,2284,Elementary,41.70899562,-72.66443070
-73.064486884362168,41.923068859640239,176,ST ANTHONY SCHOOL,PO BOX 808,,WINSTED,CT,06098,0808,Elementary,41.92306886,-73.06448688
-73.122624999643961,41.804999999650306,177,ST PETER/ST FRANCIS SCHOOL,360 PROSPECT ST,,TORRINGTON,CT,06790,5283,Elementary,41.80500000,-73.12262500
-72.88204283820636,41.595867060916191,178,ST THOMAS SCHOOL,133 BRISTOL ST,,SOUTHINGTON,CT,06489,,Elementary,41.59586706,-72.88204284
-73.206050500430194,41.783126568336513,179,CONNECTICUT JUNIOR REPUBLIC,PO BOX 161,,LITCHFIELD,CT,06759,,Secondary,41.78312657,-73.20605050
-73.082976000442045,41.590536173905377,180,ST MARY MAGDALEN SCHOOL,140 BUCKINGHAM ST,,OAKVILLE,CT,06779,1798,Elementary,41.59053617,-73.08297600
-72.780601717994841,41.662092335992554,181,ST MATTHEWS LUTHERAN SCHOOL,87 FRANKLIN SQ,,NEW BRITAIN,CT,06051,2606,Elementary,41.66209234,-72.78060172
-72.788618398820006,41.671943030346654,182,SACRED HEART SCHOOL,35 ORANGE ST,,NEW BRITAIN,CT,06053,4122,Elementary,41.67194303,-72.78861840
-73.190447000328788,41.759311239921828,183,THE FORMAN SCHOOL,PO BOX 80,,LITCHFIELD,CT,06759,,Secondary,41.75931124,-73.19044700
-72.443384517681295,41.282954071273423,184,OXFORD ACADEMY,1393 BOSTON POST RD,,WESTBROOK,CT,06498,,Combined elementary and secondary,41.28295407,-72.44338452
-73.124391500167576,41.603634191564765,185,THE TAFT SCHOOL,110 WOODBURY RD,,WATERTOWN,CT,06795,,Secondary,41.60363419,-73.12439150
-72.548629059683321,41.771935173669362,186,ASSUMPTION SCHOOL,27 ADAMS ST S,,MANCHESTER,CT,06040,2699,Elementary,41.77193517,-72.54862906
-72.55926494671985,41.783382597229149,187,EAST CATHOLIC HIGH SCHOOL,115 NEW STATE RD,,MANCHESTER,CT,06042,,Secondary,41.78338260,-72.55926495
-72.829252420962405,41.723480307070588,188,MISS PORTER'S SCHOOL,60 MAIN ST,,FARMINGTON,CT,06032,2288,Secondary,41.72348031,-72.82925242
-72.52541891834835,41.791169467097291,189,ST BRIDGET SCHOOL,74 MAIN ST,,MANCHESTER,CT,06042,,Elementary,41.79116947,-72.52541892
-72.713662794002687,41.792207303624195,190,WATKINSON SCHOOL,180 BLOOMFIELD AVE,,HARTFORD,CT,06105,1096,Combined elementary and secondary,41.79220730,-72.71366279
-72.735876564751607,41.736078028278428,191,ST BRIGID SCHOOL,100 MAYFLOWER ST,,WEST HARTFORD,CT,06110,,Elementary,41.73607803,-72.73587656
-72.665248924797993,41.600567583427278,192,THE LEARNING CENTER,60 HICKSVILLE RD,,CROMWELL,CT,06416,2409,Secondary,41.60056758,-72.66524892
-72.84050545426328,41.776010278851345,193,AVON OLD FARMS SCHOOL,500 OLD FARMS RD,,AVON,CT,06001,2799,Secondary,41.77601028,-72.84050545
-72.610014456002318,41.778706950865171,194,ST ROSE SCHOOL,21 CHURCH ST,,EAST HARTFORD,CT,06108,,Elementary,41.77870695,-72.61001446
-73.304116000053341,41.646752280593319,195,THE GLENHOLME SCHOOL,81 SABBADAY LN,,WASHINGTON,CT,06793,,Combined elementary and secondary,41.64675228,-73.30411600
-72.91379700572719,41.7020184370013,196,ST PAUL CATHOLIC HIGH SCHOOL,1001 STAFFORD AVE,,BRISTOL,CT,06010,3263,Secondary,41.70201844,-72.91379701
-72.902949897619635,41.674692257841457,197,ST MATTHEW SCHOOL,33 WELCH DR,,BRISTOL,CT,06010,,Elementary,41.67469226,-72.90294990
-73.099212658337478,41.806649565824841,198,TORRINGTON CHRISTIAN ACADEMY,387 NEW HARWINTON RD,,TORRINGTON,CT,06790,5649,Combined elementary and secondary,41.80664957,-73.09921266
-72.525873217175217,41.786183051906391,199,THE CORNERSTONE CHRISTIAN SCHOOL,236 MAIN ST,,MANCHESTER,CT,06042,,Combined elementary and secondary,41.78618305,-72.52587322
-73.205320298592881,41.52350169874444,200,CREATIVE ARTS STUDIO,122 S POMPERAUG AVE,,WOODBURY,CT,06798,,Elementary,41.52350170,-73.20532030
-73.296472500105779,41.679054125347648,201,RUMSEY HALL SCHOOL,201 ROMFORD RD,,WASHINGTON DEPOT,CT,06794,1399,Combined elementary and secondary,41.67905413,-73.29647250
-73.226720520135871,41.6287114378826,202,THE ARCH BRIDGE SCHOOL,21 ARCH BRIDGE RD,,BETHLEHEM,CT,06751,,Combined elementary and secondary,41.62871144,-73.22672052
-73.148836636401597,41.758395309196203,203,TOUCHSTONE SCHOOL,PO BOX 457,,LITCHFIELD,CT,06759,,Secondary,41.75839531,-73.14883664
-73.013603682763687,41.827440686438592,204,OAK HILL SCHOOL AT ANN ANTOLINI SCHOOL,30 ANTOLINI RD,,NEW HARTFORD,CT,06057,3326,Combined elementary and secondary,41.82744069,-73.01360368
-73.302204846276595,41.705269177730429,205,WASHINGTON MONTESSORI SCHOOL,240 LITCHFIELD TPKE,,NEW PRESTON,CT,06777,,Elementary,41.70526918,-73.30220485
-72.728647594710708,41.780965492063842,206,GENGRAS CENTER/ST JOSEPH COLLEGE,1678 ASYLUM AVE,,WEST HARTFORD,CT,06117,,Combined elementary and secondary,41.78096549,-72.72864759
-72.675816592861452,41.532375216742935,207,MERCY HIGH SCHOOL,1740 RANDOLPH RD,,MIDDLETOWN,CT,06457,,Secondary,41.53237522,-72.67581659
-72.649488706138811,41.553787961345392,208,ST MARY SCHOOL,87 S MAIN ST,,MIDDLETOWN,CT,06457,3606,Elementary,41.55378796,-72.64948871
-72.819445474129282,41.455223793043672,209,HOLY TRINITY SCHOOL,11 N WHITTLESEY AVE,,WALLINGFORD,CT,06492,3619,Elementary,41.45522379,-72.81944547
-72.620630600222,41.532633081151801,210,XAVIER HIGH SCHOOL,181 RANDOLPH RD,,MIDDLETOWN,CT,06457,5635,Secondary,41.53263308,-72.62063060
-73.063604824802781,41.557382592033036,211,BLESSED SACRAMENT SCHOOL,386 ROBINWOOD RD,,WATERBURY,CT,06708,2499,Elementary,41.55738259,-73.06360482
-72.81881369859326,41.47590907784172,212,BENHAVEN SCHOOL,125 N PLAINS INDUSTRIAL RD,,WALLINGFORD,CT,06492,2332,Combined elementary and secondary,41.47590908,-72.81881370
-73.038009374732837,41.551724633285232,213,SACRED HEART HIGH SCHOOL,142 S ELM ST,,WATERBURY,CT,06706,1116,Secondary,41.55172463,-73.03800937
-72.809576810421447,41.454633022995665,214,CHOATE ROSEMARY HALL,333 CHRISTIAN ST,,WALLINGFORD,CT,06492,3800,Secondary,41.45463302,-72.80957681
-72.687557394158375,41.508380952918685,215,THE INDEPENDENT DAY SCHOOL,115 LAUREL BROOK RD,,MIDDLEFIELD,CT,06455,1253,Elementary,41.50838095,-72.68755739
-73.067118449956467,41.545721106443978,216,CHASE COLLEGIATE SCHOOL,565 CHASE PKWY,,WATERBURY,CT,06708,3394,Combined elementary and secondary,41.54572111,-73.06711845
-72.874368880919064,41.387587201088536,217,ELIZABETH IVES SCHOOL FOR SPECIAL CHILDREN,70 STATE ST,,NORTH HAVEN,CT,06473,,Combined elementary and secondary,41.38758720,-72.87436888
-72.897747286308174,41.305230888994402,218,ST FRANCIS & ST ROSE OF LIMA SCHOOL,423 FERRY ST,,NEW HAVEN,CT,06513,,Elementary,41.30523089,-72.89774729
-72.896133448399894,41.267582740151397,219,ST BERNADETTE CATHOLIC SCHOOL,20 BURR ST,,NEW HAVEN,CT,06512,,Elementary,41.26758274,-72.89613345
-73.065220884935854,41.222745551166327,220,ACADEMY OF OUR LADY OF MERCY - LAURALTON HALL,200 HIGH ST,,MILFORD,CT,06460,,Secondary,41.22274555,-73.06522088
-73.055083362607036,41.492592738364237,221,ST FRANCES OF ASSISI SCHOOL,294 CHURCH ST,,NAUGATUCK,CT,06770,2805,Elementary,41.49259274,-73.05508336
-72.902760884407257,41.346113116826928,222,ST STEPHEN SCHOOL,418 RIDGE RD,,HAMDEN,CT,06517,,Elementary,41.34611312,-72.90276088
-72.931955449184613,41.368903235196228,223,SACRED HEART ACADEMY,265 BENHAM ST,,HAMDEN,CT,06514,2833,Secondary,41.36890324,-72.93195545
-73.089141925059778,41.327462658774721,224,ST MARY & ST MICHAEL SCHOOL,14 SEYMOUR AVE,,DERBY,CT,06418,,Elementary,41.32746266,-73.08914193
-72.432620245228122,41.397707108396389,225,MT SAINT JOHN,135 KIRTLAND ST,,DEEP RIVER,CT,06417,1816,Secondary,41.39770711,-72.43262025
-72.609426158190615,41.532011601953911,226,CONNECTICUT CHRISTIAN ACADEMY,30 BROOKS RD,,MIDDLETOWN,CT,06457,5704,Combined elementary and secondary,41.53201160,-72.60942616
-72.823733609818191,41.450233787759146,227,HERITAGE BAPTIST ACADEMY,161 S WHITTLESEY AVE,,WALLINGFORD,CT,06492,4563,Combined elementary and secondary,41.45023379,-72.82373361
-72.978500597324683,41.342753621982126,228,CHILDREN'S HOUSE OF MONTESSORI INC,1666 LITCHFIELD TPKE,,WOODBRIDGE,CT,06525,2373,Elementary,41.34275362,-72.97850060
-72.807409626852746,41.511442857601821,229,KINDER GARDEN LEARNING CENTER,20 S BROAD TER,,MERIDEN,CT,06450,7902,Elementary,41.51144286,-72.80740963
-73.00982384209658,41.237858591600798,230,NEW ENGLAND SCHOOL OF MONTESSORI,PO BOX 598,,OXFORD,CT,06478,,Elementary,41.23785859,-73.00982384
-73.025330908794388,41.240102059262654,231,THE FOUNDATION SCHOOL,91 WOODMONT RD,,MILFORD,CT,06460,2840,Secondary,41.24010206,-73.02533091
-72.958217395816121,41.328135374148246,232,CHILDREN'S COMMUNITY PROGRAMS OF CT,446A BLAKE ST STE 100,,NEW HAVEN,CT,06515,1286,Secondary,41.32813537,-72.95821740
-72.91577647830178,41.532353010682925,233,WEBB SCHOOL AT CHESHIRE,725 JARVIS ST,,CHESHIRE,CT,06410,1520,Elementary,41.53235301,-72.91577648
-73.040155526756109,41.558739500827357,234,STEPPING STONES SCHOOL,63 PROSPECT ST,,WATERBURY,CT,06702,1322,Secondary,41.55873950,-73.04015553
-72.638490320371943,41.571117812636999,235,RUSHFORD ACADEMY SCHOOL,459R WALLINGFORD RD,,DURHAM,CT,06422,,Secondary,41.57111781,-72.63849032
-72.432528014356365,41.440175618010414,236,FRANKLIN ACADEMY,106 RIVER RD,,EAST HADDAM,CT,06423,1400,Secondary,41.44017562,-72.43252801
-72.3594901328633,41.318469791747532,237,THE CHILDREN'S TREE MONTESSORI SCHOOL,96 ESSEX RD,,OLD SAYBROOK,CT,06475,1405,Elementary,41.31846979,-72.35949013
-72.931337138298261,41.298025268051731,238,ST MARTINDE PORRES ACADEMY,208 COLUMBUS AVE,,NEW HAVEN,CT,06519,2229,Elementary,41.29802527,-72.93133714
-73.041225183095662,41.562258312371284,239,YESHIVA K'TANA OF WATERBURY,47 BUCKINGHAM ST,,WATERBURY,CT,06710,1900,Combined elementary and secondary,41.56225831,-73.04122518
-72.946764448620343,41.31692815680907,240,YESHIVA OF NEW HAVEN / THE GAN SCHOOL,765 ELM ST,,NEW HAVEN,CT,06511,,Combined elementary and secondary,41.31692816,-72.94676445
-72.946703611282601,41.316991075178009,241,YESHIVA GEDOLAH / RABBINICAL INST OF NEW ENGLAND,300 NORTON ST,,NEW HAVEN,CT,06511,7116,Secondary,41.31699108,-72.94670361
-72.905030085270198,41.502988078337182,242,ST BRIDGET SCHOOL,171 MAIN ST,,CHESHIRE,CT,06410,,Elementary,41.50298808,-72.90503009
-72.378116445017895,41.291643811013103,243,ST JOHN SCHOOL,42 MAYNARD RD,,OLD SAYBROOK,CT,06475,,Elementary,41.29164381,-72.37811645
-72.652884040765855,41.560770804928779,244,ROADSIDE ACADEMY,151 BROAD ST,,MIDDLETOWN,CT,06457,3327,Elementary,41.56077080,-72.65288404
-72.696150329074385,41.606622591959081,245,NORTHWEST CHILDRENS CENTER,PO BOX 131,,CROMWELL,CT,06416,0131,Elementary,41.60662259,-72.69615033
-72.710393269134045,41.517923916355699,246,MIDDLEFIELD CHILDREN'S CENTER,PO BOX 441,,MIDDLEFIELD,CT,06455,,Elementary,41.51792392,-72.71039327
-72.81647968538914,41.282524773599448,247,ST MARY SCHOOL,62 CEDAR ST,,BRANFORD,CT,06405,3646,Elementary,41.28252477,-72.81647969
-73.064942642788708,41.531153119920589,248,HOLY CROSS HIGH SCHOOL,587 ORONOKE RD,,WATERBURY,CT,06708,3999,Secondary,41.53115312,-73.06494264
-73.003112947204727,41.338116841619012,249,EZRA ACADEMY,75 RIMMON RD,,WOODBRIDGE,CT,06525,2097,Elementary,41.33811684,-73.00311295
-73.033622499778517,41.544477160592521,250,ST FRANCIS XAVIER SCHOOL,605 BALDWIN ST,,WATERBURY,CT,06706,1598,Elementary,41.54447716,-73.03362250
-72.612535402286937,41.286482510959161,251,GROVE SCHOOL,175 COPSE RD,,MADISON,CT,06443,,Secondary,41.28648251,-72.61253540
-73.035778736799216,41.55368974098883,252,ST MARY,55 COLE ST,,WATERBURY,CT,06706,1215,Elementary,41.55368974,-73.03577874
-73.123311519610922,41.526925549074861,253,WESTOVER SCHOOL,1237 WHITTEMORE RD,,MIDDLEBURY,CT,06762,,Secondary,41.52692555,-73.12331152
-72.920546716257888,41.327189567044911,254,FOOTE SCHOOL,50 LOOMIS PL,,NEW HAVEN,CT,06511,,Combined elementary and secondary,41.32718957,-72.92054672
-73.01009693202775,41.54713537759568,255,SS PETER & PAUL SCHOOL,116 BEECHER AVE,,WATERBURY,CT,06705,,Elementary,41.54713538,-73.01009693
-72.913919504181706,41.351640688267196,256,WHITNEY HALL SCHOOL,1400 WHITNEY AVE,,HAMDEN,CT,06517,2426,Combined elementary and secondary,41.35164069,-72.91391950
-73.044920838226062,41.502868549444031,257,ST HEDWIG SCHOOL,32 GOLDEN HILL ST,,NAUGATUCK,CT,06770,3099,Elementary,41.50286855,-73.04492084
-72.918682536769609,41.335162848386801,258,CEDARHURST SCHOOL,871 PROSPECT ST,,HAMDEN,CT,06517,4026,Secondary,41.33516285,-72.91868254
-72.963177435690056,41.325822506703389,259,ST AEDAN-ST BRENDAN SCHOOL,351 MCKINLEY AVE,,NEW HAVEN,CT,06515,2099,Elementary,41.32582251,-72.96317744
-72.635356797278348,41.325135317640843,260,THE COUNTRY SCHOOL,341 OPENING HILL RD,,MADISON,CT,06443,1998,Elementary,41.32513532,-72.63535680
-72.807440112970824,41.541524455189517,261,OUR LADY OF MOUNT CARMEL SCHOOL,115 LEWIS AVE,,MERIDEN,CT,06451,,Elementary,41.54152446,-72.80744011
-72.913688517810783,41.332082457239665,262,ST THOMAS'S DAY SCHOOL,830 WHITNEY AVE,,NEW HAVEN,CT,06511,1316,Elementary,41.33208246,-72.91368852
-72.808078153184169,41.538682944662241,263,ST JOSEPH SCHOOL,159 W MAIN ST,,MERIDEN,CT,06451,,Elementary,41.53868294,-72.80807815
-73.026675829625788,41.553598295225186,264,CHILDRENS COMMUNITY SCHOOL,PO BOX 1746,,WATERBURY,CT,06721,,Elementary,41.55359830,-73.02667583
-72.924550468329414,41.400762186325892,265,LAUREL OAKS ADVENTIST SCHOOL,14 W SHEPARD AVE,,HAMDEN,CT,06514,1120,Elementary,41.40076219,-72.92455047
-72.899014718854175,41.500493421933925,266,THE CHESHIRE ACADEMY,10 MAIN ST,,CHESHIRE,CT,06410,2496,Combined elementary and secondary,41.50049342,-72.89901472
-72.799270779422898,41.532611733944407,267,ST STANISLAUS SCHOOL,81 AKRON ST,,MERIDEN,CT,06450,5797,Elementary,41.53261173,-72.79927078
-72.93426960625726,41.304539476715547,268,YALE CHILD STUDY CENTER SCHOOL,230 S FRONTAGE RD,,NEW HAVEN,CT,06519,1124,Combined elementary and secondary,41.30453948,-72.93426961
-73.099822438254876,41.20044081129447,269,ST ANN SCHOOL,64 RIDGE ST,,MILFORD,CT,06460,4100,Elementary,41.20044081,-73.09982244
-73.079610076343897,41.349288222773339,270,ASSUMPTION SCHOOL,51 N CLIFF ST,,ANSONIA,CT,06401,,Elementary,41.34928822,-73.07961008
-72.909398499840847,41.357892772433559,271,ST RITA ELEMENTARY SCHOOL,1601 WHITNEY AVE,,HAMDEN,CT,06517,,Elementary,41.35789277,-72.90939850
-73.074558909066354,41.213924746030273,272,CCCD - CONNECTICUT CENTER FOR CHILD DEVELOPMENT,925 BRIDGEPORT AVE,,MILFORD,CT,06460,,Combined elementary and secondary,41.21392475,-73.07455891
-72.931570231780711,41.366853583126385,273,SACRED HEART MANOR NURSERY & KDGN,261 BENHAM ST,,HAMDEN,CT,06514,,Elementary,41.36685358,-72.93157023
-72.761747251434485,41.490023762886381,274,CREATIVE BEGINNINGS LEARNING CENTER,3 TECHNOLOGY DR,,WALLINGFORD,CT,06492,1955,Elementary,41.49002376,-72.76174725
-72.817275059296492,41.450998096385092,275,WALLINGFORD FAMILY YMCA ALL DAY KINDERGARTEN,16 WALLACE ST,,WALLINGFORD,CT,06492,4212,Elementary,41.45099810,-72.81727506
-73.077643768944768,41.249122086714976,276,CHARLES F HAYDEN SCHOOL- BOYS & GIRLS VILLAGE,528 WHEELERS FARMS RD,,MILFORD,CT,06461,1847,Elementary,41.24912209,-73.07764377
-72.63468983396865,41.3520524221816,277,THE SHORELINE CHRISTIAN SCHOOL,1185 DURHAM RD,,MADISON,CT,06443,,Elementary,41.35205242,-72.63468983
-73.013016662888617,41.226624489029007,278,BEREAN CHRISTIAN ACADEMY,989 NEW HAVEN AVE,,MILFORD,CT,06460,6933,Combined elementary and secondary,41.22662449,-73.01301666
-72.785643658228196,41.484189822102678,279,BUILDING BLOCKS LEARNING CENTER,911 N FARMS RD,,WALLINGFORD,CT,06492,1856,Elementary,41.48418982,-72.78564366
-72.920902369348823,41.328219056064654,280,CALVIN HILL DAYCARE CENTER & KLF KINDERGARTEN,150 HIGHLAND ST,,NEW HAVEN,CT,06511,2015,Elementary,41.32821906,-72.92090237
-72.975733500300748,41.278156580262021,281,LIVING WORD CHRISTIAN ACADEMY,225 MELOY RD,,WEST HAVEN,CT,06516,3035,Elementary,41.27815658,-72.97573350
-72.627045583986501,41.294588796635708,282,MONTESSORI SCHOOL OF MADISON,213 GREEN HILL RD,,MADISON,CT,06443,2103,Elementary,41.29458880,-72.62704558
-73.008212433257142,41.299674253264243,283,SOUTHERN CONNECTICUT HEBREW ACADEMY,261 DERBY AVE,,ORANGE,CT,06477,1319,Combined elementary and secondary,41.29967425,-73.00821243
-72.881298344343065,41.471383308892655,284,BOULDER KNOLL MONTESSORI SCHOOL,660 BOULDER RD,,CHESHIRE,CT,06410,3216,Elementary,41.47138331,-72.88129834
-72.912123725329593,41.324670798918305,285,LEILA DAY NURSERIES,100 COLD SPRING ST,,NEW HAVEN,CT,06511,2297,Elementary,41.32467080,-72.91212373
-72.755441602747737,41.304393888167453,286,SHORELINE SCHOOL OF MONTESSORI,675 E MAIN ST,,BRANFORD,CT,06405,2934,Elementary,41.30439389,-72.75544160
-72.960881626585774,41.287895494281713,287,NOTRE DAME HIGH SCHOOL,24 RICARDO ST,,WEST HAVEN,CT,06516,2499,Secondary,41.28789549,-72.96088163
-72.073689499570719,41.348410720078732,288,SACRED HEART SCHOOL,50 SACRED HEART DR,,GROTON,CT,06340,4434,Elementary,41.34841072,-72.07368950
-72.973701068449486,41.253675586259362,289,OUR LADY OF VICTORY SCHOOL,620 JONES HILL RD,,WEST HAVEN,CT,06516,6397,Elementary,41.25367559,-72.97370107
-72.106310609047341,41.344491015947654,290,ST JOSEPH SCHOOL,25 SQUIRE ST,,NEW LONDON,CT,06320,4890,Elementary,41.34449102,-72.10631061
-72.945787420652891,41.274299795399315,291,ST LAWRENCE SCHOOL,231 MAIN ST,,WEST HAVEN,CT,06516,4597,Elementary,41.27429980,-72.94578742
-72.06992420723634,41.527130624178994,292,ST JOSEPH SCHOOL,120 CLIFF ST,,NORWICH,CT,06360,5134,Elementary,41.52713062,-72.06992421
-72.100041867638026,41.353439048173584,293,ST MARY'S STAR OF THE SEA,16 HUNTINGTON ST,,NEW LONDON,CT,06320,6111,Elementary,41.35343905,-72.10004187
-72.0774325570668,41.531484448148831,294,ST PATRICK CATHEDRAL SCHOOL,211 BROADWAY,,NORWICH,CT,06360,4311,Elementary,41.53148445,-72.07743256
-72.464572070244799,41.867413371430018,295,ST JOSEPH SCHOOL,41 WEST ST,,VERNON ROCKVILLE,CT,06066,,Elementary,41.86741337,-72.46457207
-72.308294999614475,41.954699999905131,296,ST EDWARD SCHOOL,25 CHURCH ST,,STAFFORD SPRINGS,CT,06076,1131,Elementary,41.95470000,-72.30829500
-72.054950508659033,41.567555028741651,297,SACRED HEART SCHOOL,15 HUNTERS AVE,,TAFTVILLE,CT,06380,,Elementary,41.56755503,-72.05495051
-72.099322618643896,41.469494468195194,298,ST BERNARD SCHOOL,1593 NORWICH NEW LONDON TPKE,,UNCASVILLE,CT,06382,1399,Combined elementary and secondary,41.46949447,-72.09932262
-72.089241286855838,41.615758497057072,299,ST JOSEPH ELEMENTARY SCHOOL,10 SCHOOL HILL RD,,BALTIC,CT,06330,1029,Elementary,41.61575850,-72.08924129
-72.636062123867873,41.271938678427318,300,OUR LADY OF MERCY SCHOOL,149 NECK RD,,MADISON,CT,06443,,Elementary,41.27193868,-72.63606212
-72.088324460405488,41.615849345670824,301,ACADEMY OF THE HOLY FAMILY,54 W MAIN ST BOX 691,,BALTIC,CT,06330,1300,Secondary,41.61584935,-72.08832446
-73.047781572661393,41.226343744967892,302,ST MARY SCHOOL,72 GULF ST,,MILFORD,CT,06460,,Elementary,41.22634375,-73.04778157
-72.101704180803267,41.327272417088409,303,SOLOMON SCHECHTER ACADEMY,660 OCEAN AVE,,NEW LONDON,CT,06320,4464,Elementary,41.32727242,-72.10170418
-72.875400500432704,41.27739793916362,304,ST VINCENT DE PAUL SCHOOL,35 BISHOP ST,,EAST HAVEN,CT,06512,2984,Elementary,41.27739794,-72.87540050
-71.894633777826527,41.366342142276096,305,PINE POINT SCHOOL,89 BARNES RD,,STONINGTON,CT,06378,2200,Combined elementary and secondary,41.36634214,-71.89463378
-72.103565796324403,41.376303707749969,306,WILLIAMS SCHOOL,182 MOHEGAN AVE,,NEW LONDON,CT,06320,4110,Secondary,41.37630371,-72.10356580
-72.153454987157886,41.416078108418048,307,WATERFORD COUNTRY SCHOOL,78 HUNTS BROOK RD,,QUAKER HILL,CT,06375,1000,Combined elementary and secondary,41.41607811,-72.15345499
-72.973118280783979,41.317619132017398,308,HOPKINS SCHOOL,986 FOREST RD,,NEW HAVEN,CT,06515,2599,Secondary,41.31761913,-72.97311828
-73.053262499864445,41.288714114764616,309,THE FOUNDATION SCHOOL,719 DERBY MILFORD RD,,ORANGE,CT,06477,2299,Combined elementary and secondary,41.28871411,-73.05326250
-72.115293830845587,41.514489961242759,310,WILDWOOD CHRISTIAN SCHOOL,35 WAWECUS HILL RD,,NORWICH,CT,06360,4040,Elementary,41.51448996,-72.11529383
-71.837199385643089,41.380431145381124,311,ST MICHAEL SCHOOL,63 LIBERTY ST,,PAWCATUCK,CT,06379,,Elementary,41.38043115,-71.83719939
-72.18124344213112,41.403006317687471,312,BAPTIST BIBLE ACADEMY,1144 HARTFORD TPKE,,WATERFORD,CT,06385,4033,Combined elementary and secondary,41.40300632,-72.18124344
-71.843782083975952,41.428142138648809,313,NO STONINGTON CHRISTIAN ACADEMY,12 STILLMAN RD,,NORTH STONINGTON,CT,06359,1733,Combined elementary and secondary,41.42814214,-71.84378208
-72.102927444046259,41.529759221111192,314,MONTESSORI DISCOVERY SCHOOL,218 DUDLEY ST,,NORWICH,CT,06360,,Elementary,41.52975922,-72.10292744
-72.468552514586861,41.904233468599728,315,PRESCHOOL OF THE ARTS INC,PO BOX 775,,ELLINGTON,CT,06029,,Elementary,41.90423347,-72.46855251
-72.486189497847022,41.983832581608397,316,THE GRAMMAR SCHOOL AT SOMERSVILLE,PO BOX 443,,SOMERSVILLE,CT,06072,,Elementary,41.98383258,-72.48618950
-72.047152906281553,41.346011159787224,317,STEDFAST CHRISTIAN ACADEMY,1041 POQUONNOCK RD,,GROTON,CT,06340,4211,Combined elementary and secondary,41.34601116,-72.04715291
-72.197991225214821,41.741199678122712,318,NATCHAUG HOSPITAL SCHOOL-CONSOLIDATED,PO BOX 260,,MANSFIELD CENTER,CT,06250,,Combined elementary and secondary,41.74119968,-72.19799123
-72.302886192643655,41.799952519593148,319,MANSFIELD DISCOVERY DEPOT,50 DEPOT RD,,STORRS MANSFIELD,CT,06268,5106,Elementary,41.79995252,-72.30288619
-72.075431829015656,41.526191034088981,320,MAYFLOWER MONTESSORI SCHOOL,87 BROADWAY,,NORWICH,CT,06360,,Elementary,41.52619103,-72.07543183
-72.085880728113068,41.540613742330379,321,STONEVIEW CHILDREN'S UNIVERSITY,294 WASHINGTON ST,,NORWICH,CT,06360,2919,Elementary,41.54061374,-72.08588073
-72.902690241761206,41.303860477778869,322,COLD SPRING SCHOOL,263 CHAPEL ST,,NEW HAVEN,CT,06513,4214,Elementary,41.30386048,-72.90269024
-72.055985297383529,41.34099778112278,323,PFIZER KIDS (MGD BY BRIGHT HORIZONS),40 HIGH ROCK RD,,GROTON,CT,06340,4519,Elementary,41.34099778,-72.05598530
-71.935427258760967,41.406372340711016,324,A CHILD'S GARDEN MONTESSORI SCHOOL,28 WHITTAKER DR,,STONINGTON,CT,06378,1722,Elementary,41.40637234,-71.93542726
-72.235039000149698,41.730889000327181,325,OAK GROVE MONTESSORI ELEMENTARY SCHOOL,132 PLEASANT VALLEY RD,,MANSFIELD CENTER,CT,06250,1538,Elementary,41.73088900,-72.23503900
-72.291997999907721,41.722591999920894,326,LIGHTHOUSE CHRISTIAN SCHOOL,195 ROUTE 6,,COLUMBIA,CT,06237,1119,Elementary,41.72259200,-72.29199800
-71.885186406927119,41.801514891998693,327,ST JAMES SCHOOL,120 WATER ST,,DANIELSON,CT,06239,3532,Elementary,41.80151489,-71.88518641
-71.89696656165745,41.987261740636882,328,ST JOSEPH SCHOOL,PO BOX 137,,NORTH GROSVENORDALE,CT,06255,0137,Elementary,41.98726174,-71.89696656
-71.911851933320008,41.923680162109861,329,ST MARY SCHOOL,23 MARSHALL ST,,PUTNAM,CT,06260,1403,Elementary,41.92368016,-71.91185193
-72.206582831832179,41.713898581954027,330,ST MARY ST JOSEPH SCHOOL,35 VALLEY ST,,WILLIMANTIC,CT,06226,2703,Elementary,41.71389858,-72.20658283
-71.964776400810194,41.886270748196523,331,POMFRET SCHOOL,PO BOX 128,,POMFRET,CT,06258,,Secondary,41.88627075,-71.96477640
-71.817697605060403,41.91502779010051,332,TRI-STATE CHRISTIAN ACADEMY,250 E PUTNAM RD,,PUTNAM,CT,06260,2822,Elementary,41.91502779,-71.81769761
-71.913766845363568,41.915039178215579,333,PUTNAM SCIENCE ACADEMY,18 MAPLE ST,,PUTNAM,CT,06260,1816,Secondary,41.91503918,-71.91376685
-72.210214566748789,41.916349658609931,334,KIDDERBROOK MONTESSORI SCHOOL,22 KIDDER BROOK RD 24,,ASHFORD,CT,06278,1014,Elementary,41.91634966,-72.21021457
-71.957631903189736,41.814888881017112,335,THE LEARNING CLINIC,PO BOX 324,,BROOKLYN,CT,06234,0324,Combined elementary and secondary,41.81488888,-71.95763190
-71.964914603226305,41.892575196288306,336,THE RECTORY SCHOOL,PO BOX 68,,POMFRET,CT,06258,,Combined elementary and secondary,41.89257520,-71.96491460
-71.957526293103911,41.927864889253271,337,HYDE SCHOOL,PO BOX 237,,WOODSTOCK,CT,06281,0237,Secondary,41.92786489,-71.95752629
-72.43444400019041,41.770458000336475,338,HANS CHR ANDERSEN MONTESSORI,212 BOLTON CENTER RD,,BOLTON,CT,06043,7637,Elementary,41.77045800,-72.43444400
-73.089673675299821,41.194320416653966,339,ST GABRIEL SCHOOL,1 TUDOR RD,,MILFORD,CT,06460,5967,Elementary,41.19432042,-73.08967368
-71.864871476437429,41.959887975649622,340,MARIANAPOLIS PREP SCHOOL,PO BOX 304,,THOMPSON,CT,06277,0304,Secondary,41.95988798,-71.86487148
-72.896883384060914,41.338473143121121,341,WEST WOODS CHRISTIAN ACADEMY,2105 STATE ST,,HAMDEN,CT,06517,3834,Combined elementary and secondary,41.33847314,-72.89688338
-73.035382054837896,41.833549470831485,342,HUNTER MONTESSORI SCHOOL,18 CEDAR LN,,NEW HARTFORD,CT,06057,2931,Elementary,41.83354947,-73.03538205
-72.673684490946471,41.755326205440099,343,SS CYRIL & METHODIUS SCHOOL,35 GROTON ST,,HARTFORD,CT,06106,2799,Elementary,41.75532621,-72.67368449
-73.049307919125113,41.58234366123105,344,LIGHTHOUSE CHRISTIAN ACADEMY,1245 THOMASTON AVE,,WATERBURY,CT,06704,1714,Elementary,41.58234366,-73.04930792
-72.568078437669726,41.718969929118998,345,SHIRLEY REABACK ECC,1079 HEBRON AVE,,GLASTONBURY,CT,06033,5032,Elementary,41.71896993,-72.56807844
-73.265300999741328,41.626477000313344,346,HORACE MANN SCHOOL JOHN DORR NATURE LABORATORY,PO BOX 290,,WASHINGTON DEPOT,CT,06794,0290,Combined elementary and secondary,41.62647700,-73.26530100
-72.875182135147384,41.805386027343332,347,JONI'S CHILD CARE & PRESCHOOL,3 EASTVIEW DR,,FARMINGTON,CT,06032,1231,Elementary,41.80538603,-72.87518214
-72.729609195707781,41.664197592245159,348,SOUTHFIELD CHILDREN'S CENTER,84 FAITH RD,,NEWINGTON,CT,06111,4810,Elementary,41.66419759,-72.72960920
-72.601079546683707,41.808945295788817,349,KINDERCARE LEARNING CENTER,494 CHAPEL RD,,SOUTH WINDSOR,CT,06074,4196,Elementary,41.80894530,-72.60107955
-72.899430371114704,41.629144068444077,350,CENTRAL CHRISTIAN ACADEMY,1505 WEST ST,,SOUTHINGTON,CT,06489,1062,Combined elementary and secondary,41.62914407,-72.89943037
-72.686725610298652,41.76776718470785,351,COVENANT PREP SCHOOL,135 BROAD ST,,HARTFORD,CT,06105,,Elementary,41.76776718,-72.68672561
-73.040020150909186,41.560185182600151,352,AL YAQEEN ACADEMY,PO BOX 1873,,WATERBURY,CT,06722,,Elementary,41.56018518,-73.04002015
-73.025062850570066,41.597668525282245,353,WATERBURY CHRISTIAN ACADEMY,PO BOX 4790,,WATERBURY,CT,06704,0790,Elementary,41.59766853,-73.02506285
-73.113000897573329,41.229531906372415,354,WHITE OAK BAPTIST ACADEMY,5344 MAIN ST PUTNEY,,STRATFORD,CT,06614,,Combined elementary and secondary,41.22953191,-73.11300090
-72.679825245338748,41.905985460360739,355,POQUONOCK PLAYSCHOOL,PO BOX 144,,POQUONOCK,CT,06064,,Elementary,41.90598546,-72.67982525
-72.804302595088643,41.474351080637916,356,HIGH ROAD STUDENT LEARNING CENTER,29 VILLAGE LN,,WALLINGFORD,CT,06492,2426,Elementary,41.47435108,-72.80430260
-72.913874091116384,41.341371033946132,357,HAMDEN HALL COUNTRY DAY SCHOOL,1108 WHITNEY AVE,,HAMDEN,CT,06517,3499,Combined elementary and secondary,41.34137103,-72.91387409
-72.97126700027178,41.771420999779366,358,JONI'S CHILD CARE,304 SPIELMAN HWY,,BURLINGTON,CT,06013,,Elementary,41.77142100,-72.97126700
-72.777270866557217,41.787014023678296,359,RENBROOK SCHOOL,2865 ALBANY AVE,,WEST HARTFORD,CT,06117,1899,Combined elementary and secondary,41.78701402,-72.77727087
-72.73462783270827,41.764896968720166,360,ST THOMAS THE APOSTLE,25 DOVER RD,,WEST HARTFORD,CT,06119,1298,Elementary,41.76489697,-72.73462783
-72.220568761838877,41.512778865252471,361,ST THOMAS MORE SCHOOL,45 COTTAGE RD,,OAKDALE,CT,06370,1075,Secondary,41.51277887,-72.22056876
-72.621938432112927,41.799392839108293,362,CHARTER OAK SCHOOL,414 KING ST,,SOUTH WINDSOR,CT,06074,4017,Combined elementary and secondary,41.79939284,-72.62193843
-72.228138894194558,41.721634652717114,363,MARANATHA SDA REGIONAL SCHOOL,126 QUARRY ST,,WILLIMANTIC,CT,06226,1248,Combined elementary and secondary,41.72163465,-72.22813889
-72.922604864223047,41.345807036165866,364,SALMA K FARID ACADEMY,131 LEEDER HILL DR,,HAMDEN,CT,06517,2747,Elementary,41.34580704,-72.92260486
-72.792959000057749,41.531139999711286,365,MIDSTATE CHRISTIAN ACADEMY,139 CHARLES ST,,MERIDEN,CT,06450,,Combined elementary and secondary,41.53114000,-72.79295900
-72.907562303657357,41.36650854473362,366,LORRAINE D FOSTER DAY SCHOOL,1861 WHITNEY AVE,,HAMDEN,CT,06517,1406,Combined elementary and secondary,41.36650854,-72.90756230
-72.498903695649005,41.761245660958537,367,KINDERCARE LEARNING CENTER,481 SPRING ST,,MANCHESTER,CT,06040,,Elementary,41.76124566,-72.49890370
